STARLETTE               
1 07646U 75010A   24162.93135297 -.00000152  00000+0 -64607-5 0  9997
2 07646  49.8220 130.6941 0205662 150.7934 210.4643 13.82328598492693
LAGEOS 1                
1 08820U 76039A   24162.47087809  .00000005  00000+0  00000+0 0  9994
2 08820 109.8570 286.9736 0044218 100.3245 261.6080  6.38665042866097
AJISAI (EGS)            
1 16908U 86061A   24162.98221198 -.00000066  00000+0  22255-3 0  9991
2 16908  50.0090 251.1931 0011377 106.9638  64.0661 12.44506020388718
COSMOS 1989 (ETALON 1)  
1 19751U 89001C   24162.30192087 -.00000001  00000+0  00000+0 0  9996
2 19751  64.5518  97.4757 0023834 215.9693 212.8257  2.13156208275669
COSMOS 2024 (ETALON 2)  
1 20026U 89039C   24162.59523029 -.00000065  00000+0  00000+0 0  9999
2 20026  65.3408 335.7864 0019417 216.9929 108.2361  2.13204515272795
LAGEOS 2                
1 22195U 92070B   24162.60883748 -.00000009  00000+0  00000+0 0  9994
2 22195  52.6794  12.1477 0137574 224.8499 325.5639  6.47293412747730
STELLA                  
1 22824U 93061B   24162.93233889 -.00000025  00000+0  87343-5 0  9994
2 22824  98.8784 209.1202 0005808 208.2113 278.8494 14.27425718599734
LARETS                  
1 27944U 03042F   24162.95839026  .00000219  00000+0  51750-4 0  9995
2 27944  98.3145 303.1669 0012513 169.6768 190.4693 14.63519532105660
LARES                   
1 38077U 12006A   24162.92237877 -.00000049  00000+0 -66598-4 0  9996
2 38077  69.4893 109.8547 0008561   0.5300 359.5734 12.54931586564698
LARES-2                 
1 53105U 22080A   24160.56257473  .00000015  00000+0  00000+0 0  9992
2 53105  70.1382 198.6420 0004978 140.6456 219.4708  6.38965270 44477
